{
    "links": {
        "self": "http://www.neowsapp.com/rest/v1/neo/3669020?api_key=iIulBulltgU6a56xZRHN4H3l9WmuAYTsLGpBGhQ2"
    },
    "id": "3669020",
    "neo_reference_id": "3669020",
    "name": "(2014 HK4)",
    "designation": "2014 HK4",
    "nasa_jpl_url": "http://ssd.jpl.nasa.gov/sbdb.cgi?sstr=3669020",
    "absolute_magnitude_h": 23.6,
    "estimated_diameter": {
        "kilometers": {
            "estimated_diameter_min": 0.0506471459,
            "estimated_diameter_max": 0.1132504611
        },
        "meters": {
            "estimated_diameter_min": 50.6471458835,
            "estimated_diameter_max": 113.2504610618
        },
        "miles": {
            "estimated_diameter_min": 0.0314706677,
            "estimated_diameter_max": 0.0703705522
        },
        "feet": {
            "estimated_diameter_min": 166.1651821003,
            "estimated_diameter_max": 371.5566426699
        }
    },
    "is_potentially_hazardous_asteroid": false,
    "close_approach_data": [
        {
            "close_approach_date": "1911-04-25",
            "close_approach_date_full": "1911-Apr-25 23:13",
            "epoch_date_close_approach": -1851986820000,
            "relative_velocity": {
                "kilometers_per_second": "20.8166771213",
                "kilometers_per_hour": "74940.0376365014",
                "miles_per_hour": "46564.825052525"
            },
            "miss_distance": {
                "astronomical": "0.1553102637",
                "lunar": "60.4156925793",
                "kilometers": "23234084.638658319",
                "miles": "14436990.7423060422"
            },
            "orbiting_body": "Earth"
        },
        {
            "close_approach_date": "1912-11-17",
            "close_approach_date_full": "1912-Nov-17 23:16",
            "epoch_date_close_approach": -1802565840000,
            "relative_velocity": {
                "kilometers_per_second": "11.5455133497",
                "kilometers_per_hour": "41563.8480588941",
                "miles_per_hour": "25826.1588119278"
            },
            "miss_distance": {
                "astronomical": "0.1204086307",
                "lunar": "46.8389573423",
                "kilometers": "18012874.682336609",
                "miles": "11192681.3160748442"
            },
            "orbiting_body": "Venus"
        },
        {
            "close_approach_date": "1959-04-25",
            "close_approach_date_full": "1959-Apr-25 02:22",
            "epoch_date_close_approach": -337297080000,
            "relative_velocity": {
                "kilometers_per_second": "21.5701809363",
                "kilometers_per_hour": "77652.651370707",
                "miles_per_hour": "48250.3377364262"
            },
            "miss_distance": {
                "astronomical": "0.1810802685",
                "lunar": "70.4402244465",
                "kilometers": "27089222.466628095",
                "miles": "16832462.309113911"
            },
            "orbiting_body": "Earth"
        },
        {
            "close_approach_date": "2014-05-07",
            "close_approach_date_full": "2014-May-07 14:41",
            "epoch_date_close_approach": 1399473660000,
            "relative_velocity": {
                "kilometers_per_second": "14.0549633793",
                "kilometers_per_hour": "50597.8681655844",
                "miles_per_hour": "31439.547583221"
            },
            "miss_distance": {
                "astronomical": "0.0808079153",
                "lunar": "31.4342790517",
                "kilometers": "12088692.008020411",
                "miles": "7511564.8978912318"
            },
            "orbiting_body": "Earth"
        },
        {
            "close_approach_date": "2018-11-21",
            "close_approach_date_full": "2018-Nov-21 12:56",
            "epoch_date_close_approach": 1542804960000,
            "relative_velocity": {
                "kilometers_per_second": "18.6432106281",
                "kilometers_per_hour": "67115.558261083",
                "miles_per_hour": "41702.997853949"
            },
            "miss_distance": {
                "astronomical": "0.0896659871",
                "lunar": "34.8800689819",
                "kilometers": "13413840.681607477",
                "miles": "8334974.1016661026"
            },
            "orbiting_body": "Earth"
        }
    ],
    "orbital_data": {
        "orbit_id": "8",
        "orbit_determination_date": "2017-04-06 08:41:30",
        "first_observation_date": "2014-04-23",
        "last_observation_date": "2014-05-02",
        "data_arc_in_days": 9,
        "observations_used": 38,
        "orbit_uncertainty": "8",
        "minimum_orbit_intersection": ".0110569",
        "jupiter_tisserand_invariant": "4.977",
        "epoch_osculation": "2456776.5",
        "eccentricity": ".5022067321570766",
        "semi_major_axis": "1.258015790555722",
        "inclination": "8.669867666843883",
        "ascending_node_longitude": "38.89543625443235",
        "orbital_period": "515.3800050779837",
        "perihelion_distance": ".6262317913787314",
        "perihelion_argument": "281.9687981491953",
        "aphelion_distance": "1.889799789732712",
        "perihelion_time": "2456843.764664012849",
        "mean_anomaly": "313.0147099110654",
        "mean_motion": ".6985137111509154",
        "equinox": "J2000",
        "orbit_class": {
            "orbit_class_type": "APO",
            "orbit_class_description": "Near-Earth asteroid orbits which cross the Earth’s orbit similar to that of 1862 Apollo",
            "orbit_class_range": "a (semi-major axis) > 1.0 AU; q (perihelion) < 1.017 AU"
        }
    },
    "is_sentry_object": false
}